SatCatId,ObjectName,LaunchYear,OrbitalPeriod,LaunchMass,StatusCode,Inclination,Status,UcsData,OrbitClassEstimated,LaunchSiteCountry,Owner,UseType,Purpose,LaunchVehicleClass,TLE1,TLE2,MeanMotion,Eccentricity,OrbitClass
59654,STARLINK-31589,2024,93.46,-1.0,+,43.0,Active,0,LEO,USA,USA,Unknown,Unknown,Unknown,1 59654U 24084A   24173.54504430 -.00000288  00000+0  37790-6 0  9999,2 59654  42.9983   4.6721 0001383 283.1346  76.9356 15.40698226  8331,15.40698226,0.0001383,LEO
59655,STARLINK-31665,2024,93.46,-1.0,+,43.0,Active,0,LEO,USA,USA,Unknown,Unknown,Unknown,1 59655U 24084B   24173.69037825  .00003273  00000+0  85607-4 0  9999,2 59655  42.9968   4.0387 0001629 282.2629  77.8045 15.40690097  8292,15.40690097,0.0001629,LEO
59656,STARLINK-31912,2024,93.46,-1.0,+,43.0,Active,0,LEO,USA,USA,Unknown,Unknown,Unknown,1 59656U 24084C   24173.53160444 -.00000026  00000+0  66579-5 0  9999,2 59656  43.0051   4.5704 0002575 284.9021  75.1550 15.40692499  8304,15.40692499,0.0002575,LEO
59657,STARLINK-31904,2024,93.46,-1.0,+,43.0,Active,0,LEO,USA,USA,Unknown,Unknown,Unknown,1 59657U 24084D   24173.58746620  .00003399  00000+0  88579-4 0  9999,2 59657  42.9982   4.1206 0001298 260.3372  99.7337 15.40702858  8314,15.40702858,0.0001298,LEO
59658,STARLINK-31858,2024,93.46,-1.0,+,43.0,Active,0,LEO,USA,USA,Unknown,Unknown,Unknown,1 59658U 24084E   24173.54952159  .00001768  00000+0  49583-4 0  9992,2 59658  43.0004   4.7017 0001774 282.0792  77.9865 15.40694540  8271,15.4069454,0.0001774,LEO
59659,STARLINK-31881,2024,93.46,-1.0,+,43.0,Active,0,LEO,USA,USA,Unknown,Unknown,Unknown,1 59659U 24084F   24173.70157487  .00001047  00000+0  32330-4 0  9994,2 59659  43.0012   4.1258 0001853 238.4173 121.6503 15.40699812  8293,15.40699812,0.0001853,LEO
59660,STARLINK-31885,2024,93.46,-1.0,+,43.0,Active,0,LEO,USA,USA,Unknown,Unknown,Unknown,1 59660U 24084G   24173.74848267  .00006229  00000+0  15626-3 0  9998,2 59660  42.9989   3.6192 0001630 296.9660  63.1030 15.40696998  8309,15.40696998,0.000163,LEO
59661,STARLINK-31880,2024,93.46,-1.0,+,43.0,Active,0,LEO,USA,USA,Unknown,Unknown,Unknown,1 59661U 24084H   24173.82451521  .00006724  00000+0  16805-3 0  9991,2 59661  42.9997   3.3313 0001928 263.1086  96.9551 15.40706624  8310,15.40706624,0.0001928,LEO
59662,STARLINK-31886,2024,93.46,-1.0,+,43.0,Active,0,LEO,USA,USA,Unknown,Unknown,Unknown,1 59662U 24084J   24173.86470199  .00001169  00000+0  35237-4 0  9997,2 59662  42.9983   2.7646 0001689 278.3852  81.6813 15.40700723  8328,15.40700723,0.0001689,LEO
59663,STARLINK-31909,2024,93.46,-1.0,+,43.0,Active,0,LEO,USA,USA,Unknown,Unknown,Unknown,1 59663U 24084K   24173.51591745  .00002097  00000+0  57434-4 0  9995,2 59663  43.0045   4.4804 0001595 281.1618  78.9059 15.40705179  8302,15.40705179,0.0001595,LEO
59664,STARLINK-31910,2024,93.46,-1.0,+,43.0,Active,0,LEO,USA,USA,Unknown,Unknown,Unknown,1 59664U 24084L   24173.58297831 -.00001663  00000+0 -32526-4 0  9997,2 59664  43.0027   4.0834 0001902 259.9285 100.1357 15.40714352  8286,15.40714352,0.0001902,LEO
59665,STARLINK-31894,2024,92.65,-1.0,+,43.0,Active,0,LEO,USA,USA,Unknown,Unknown,Unknown,1 59665U 24084M   24173.58335648  .00157970  00000+0  22792-2 0  9990,2 59665  42.9989   2.5084 0005660 284.5065   5.5899 15.54686067  8305,15.54686067,0.000566,LEO
59666,STARLINK-31902,2024,93.46,-1.0,+,43.0,Active,0,LEO,USA,USA,Unknown,Unknown,Unknown,1 59666U 24084N   24172.82296843  .00002400  00000+0  64734-4 0  9991,2 59666  42.9967   8.7031 0001241 281.4778  78.5939 15.40682214  8164,15.40682214,0.0001241,LEO
59667,STARLINK-31913,2024,93.46,-1.0,+,43.0,Active,0,LEO,USA,USA,Unknown,Unknown,Unknown,1 59667U 24084P   24173.56968339  .00000445  00000+0  17900-4 0  9990,2 59667  42.9970   4.8528 0000304 247.4963 112.5861 15.40698974  8303,15.40698974,3.04e-05,LEO
59668,STARLINK-31866,2024,93.47,-1.0,+,43.0,Active,0,LEO,USA,USA,Unknown,Unknown,Unknown,1 59668U 24084Q   24173.57626732  .00002366  00000+0  63873-4 0  9994,2 59668  43.0017   4.0301 0002157   3.3352 356.7519 15.40710828  8358,15.40710828,0.0002157,LEO
59669,STARLINK-31917,2024,93.46,-1.0,+,43.0,Active,0,LEO,USA,USA,Unknown,Unknown,Unknown,1 59669U 24084R   24173.58522104  .00000682  00000+0  23612-4 0  9990,2 59669  43.0033   4.1007 0002570 290.7168  69.3413 15.40702176  8310,15.40702176,0.000257,LEO
59670,STARLINK-31860,2024,93.46,-1.0,+,43.0,Active,0,LEO,USA,USA,Unknown,Unknown,Unknown,1 59670U 24084S   24173.75072480 -.00000122  00000+0  43581-5 0  9996,2 59670  43.0022   3.6281 0001668 276.7739  83.2928 15.40702915  8309,15.40702915,0.0001668,LEO
59671,STARLINK-31854,2024,93.46,-1.0,+,43.0,Active,0,LEO,USA,USA,Unknown,Unknown,Unknown,1 59671U 24084T   24173.54266048  .00000401  00000+0  16877-4 0  9995,2 59671  43.0012   3.7926 0002059 279.0508  81.0115 15.40707097  8288,15.40707097,0.0002059,LEO
59672,STARLINK-31842,2024,93.46,-1.0,+,43.0,Active,0,LEO,USA,USA,Unknown,Unknown,Unknown,1 59672U 24084U   24173.74625516 -.00003077  00000+0 -66444-4 0  9996,2 59672  42.9997   3.5937 0001170 290.3548  69.7183 15.40692573  8305,15.40692573,0.000117,LEO
59673,STARLINK-31871,2024,93.46,-1.0,+,43.0,Active,0,LEO,USA,USA,Unknown,Unknown,Unknown,1 59673U 24084V   24173.57401674  .00001748  00000+0  49105-4 0  9991,2 59673  43.0011   4.0100 0001668 259.0855 100.9813 15.40702888  8318,15.40702888,0.0001668,LEO
59674,STARLINK-31875,2024,93.46,-1.0,+,43.01,Active,0,LEO,USA,USA,Unknown,Unknown,Unknown,1 59674U 24084W   24173.56295552  .00001801  00000+0  50362-4 0  9994,2 59674  43.0001   4.7978 0001479 281.5741  78.4949 15.40706001  8345,15.40706001,0.0001479,LEO
59675,STARLINK-31877,2024,93.46,-1.0,+,43.0,Active,0,LEO,USA,USA,Unknown,Unknown,Unknown,1 59675U 24084X   24173.58970446  .00002510  00000+0  67351-4 0  9993,2 59675  43.0007   4.1323 0004263 300.3913  59.6522 15.40703411  8288,15.40703411,0.0004263,LEO
59676,STARLINK-31884,2024,93.46,-1.0,+,43.0,Active,0,LEO,USA,USA,Unknown,Unknown,Unknown,1 59676U 24084Y   24173.57850426  .00000504  00000+0  19330-4 0  9993,2 59676  43.0024   4.0699 0001432 278.9045  81.1650 15.40704214  8312,15.40704214,0.0001432,LEO
59678,OBJECT B,2024,94.61,-1.0,+,97.41,Active,0,LEO,PRC,China,Unknown,Unknown,Unknown,1 59678U 24085B   24173.86206498  .00013813  00000+0  60365-3 0  9992,2 59678  97.4104 248.0725 0016835 120.9327 239.3567 15.22081566  6958,15.22081566,0.0016835,LEO
59679,OBJECT C,2024,94.6,-1.0,+,97.41,Active,0,LEO,PRC,China,Unknown,Unknown,Unknown,1 59679U 24085C   24173.81907993  .00008378  00000+0  36592-3 0  9991,2 59679  97.4049 247.9461 0016198 109.3989 250.9000 15.22245660  6946,15.2224566,0.0016198,LEO
59680,OBJECT D,2024,94.65,-1.0,+,97.38,Active,0,LEO,PRC,China,Unknown,Unknown,Unknown,1 59680U 24085D   24173.82057970  .00010431  00000+0  46773-3 0  9990,2 59680  97.4048 247.9441 0016182 108.5901 251.7094 15.21283343  6944,15.21283343,0.0016182,LEO
59681,OBJECT E,2024,93.83,-1.0,+,97.37,Active,0,LEO,PRC,China,Unknown,Unknown,Unknown,1 59681U 24085E   24173.58234598  .00013175  00000+0  37335-3 0  9999,2 59681  97.3739 248.3996 0056088 190.3404 169.6690 15.34781392  6969,15.34781392,0.0056088,LEO
59682,STARLINK-32108,2024,93.46,-1.0,+,43.0,Active,0,LEO,USA,USA,Unknown,Unknown,Unknown,1 59682U 24086A   24173.66828715  .00001292  00000+0  38167-4 0  9992,2 59682  43.0022  25.3009 0001684 273.4044  86.6620 15.40719791  7947,15.40719791,0.0001684,LEO
59683,STARLINK-32080,2024,93.46,-1.0,+,43.0,Active,0,LEO,USA,USA,Unknown,Unknown,Unknown,1 59683U 24086B   24172.97758394 -.00000139  00000+0  39413-5 0  9997,2 59683  43.0029  29.5832 0001999 262.9033  97.1596 15.40697286  7926,15.40697286,0.0001999,LEO
59684,STARLINK-32091,2024,93.46,-1.0,+,43.0,Active,0,LEO,USA,USA,Unknown,Unknown,Unknown,1 59684U 24086C   24173.64407449  .00014460  00000+0  35282-3 0  9994,2 59684  43.0024  27.7532 0002081 266.6710  93.3908 15.40695049  7914,15.40695049,0.0002081,LEO
59685,STARLINK-32085,2024,93.46,-1.0,+,43.0,Active,0,LEO,USA,USA,Unknown,Unknown,Unknown,1 59685U 24086D   24173.61270370  .00001874  00000+0  52097-4 0  9992,2 59685  43.0032  27.5090 0002220 276.7539  83.3065 15.40712809  7958,15.40712809,0.000222,LEO
59686,STARLINK-32100,2024,91.17,-1.0,P,43.0,Active,0,LEO,USA,USA,Unknown,Unknown,Unknown,1 59686U 24086E   24173.58335648  .00232257  00000+0  11691-2 0  9993,2 59686  42.9983  18.9319 0007270 289.9691 227.6339 15.80195984  8057,15.80195984,0.000727,LEO
59687,STARLINK-32089,2024,93.46,-1.0,+,43.01,Active,0,LEO,USA,USA,Unknown,Unknown,Unknown,1 59687U 24086F   24172.98458281  .00001047  00000+0  32338-4 0  9990,2 59687  43.0042  31.4034 0001929 283.9752  76.0890 15.40700822  7817,15.40700822,0.0001929,LEO
59688,STARLINK-32103,2024,93.46,-1.0,+,43.0,Active,0,LEO,USA,USA,Unknown,Unknown,Unknown,1 59688U 24086G   24173.65303252  .00000451  00000+0  18052-4 0  9998,2 59688  43.0022  27.8202 0001588 283.4564  76.6115 15.40700920  7915,15.4070092,0.0001588,LEO
59689,STARLINK-32105,2024,93.46,-1.0,+,43.0,Active,0,LEO,USA,USA,Unknown,Unknown,Unknown,1 59689U 24086H   24172.98906821  .00001333  00000+0  39164-4 0  9992,2 59689  42.9983  31.4376 0001301 287.2684  72.8031 15.40699369  7819,15.40699369,0.0001301,LEO
59690,STARLINK-32106,2024,93.46,-1.0,+,43.0,Active,0,LEO,USA,USA,Unknown,Unknown,Unknown,1 59690U 24086J   24173.65079755 -.00000005  00000+0  71362-5 0  9999,2 59690  42.9996  27.8036 0001644 290.7992  69.2689 15.40696966  7918,15.40696966,0.0001644,LEO
59691,STARLINK-32090,2024,93.46,-1.0,+,43.0,Active,0,LEO,USA,USA,Unknown,Unknown,Unknown,1 59691U 24086K   24173.81617692 -.00003457  00000+0 -75602-4 0  9991,2 59691  43.0002  26.4563 0001075 286.3975  73.6763 15.40673784  7835,15.40673784,0.0001075,LEO
59692,STARLINK-32095,2024,91.74,-1.0,+,43.0,Active,0,LEO,USA,USA,Unknown,Unknown,Unknown,1 59692U 24086L   24173.91667824 -.01572964  00000+0 -14799-1 0  9997,2 59692  42.9988  20.0053 0004253 288.4578 152.2861 15.69079257  8025,15.69079257,0.0004253,LEO
